IRIDIUM 157             
1 43251U 18030C   26187.72138110  .00000088  00000+0  24201-4 0  9992
2 43251  86.3966 282.2535 0002256  95.4380 264.7073 14.34218420432935
IRIDIUM 140             
1 43252U 18030D   26187.67063907  .00000146  00000+0  44974-4 0  9992
2 43252  86.3963 282.2869 0002229  95.9499 264.1951 14.34219087432983
IRIDIUM 145             
1 43253U 18030E   26187.72771811  .00000111  00000+0  32404-4 0  9996
2 43253  86.3964 282.2354 0002364 102.9496 257.1964 14.34216712432922
IRIDIUM 148             
1 43255U 18030G   26187.67698377  .00000195  00000+0  62416-4 0  9995
2 43255  86.3966 282.3122 0002340  94.9557 265.1906 14.34217543432964
IRIDIUM 142             
1 43256U 18030H   26187.64526985  .00000276  00000+0  91602-4 0  9997
2 43256  86.3960 282.2135 0002369  98.9410 261.2054 14.34218923432925
IRIDIUM 143             
1 43258U 18030K   26187.73406522  .00000120  00000+0  35732-4 0  9993
2 43258  86.3968 282.3869 0002270  97.7894 262.3560 14.34217676432898
